[{"OBJECT_NAME":"STARLINK-3419","OBJECT_ID":"2022-010H","EPOCH":"2026-03-09T20:57:01.604736","MEAN_MOTION":15.08823731,"ECCENTRICITY":0.00012931,"INCLINATION":53.216,"RA_OF_ASC_NODE":278.2949,"ARG_OF_PERICENTER":119.6861,"MEAN_ANOMALY":240.426,"EPHEMERIS_TYPE":0,"CLASSIFICATION_TYPE":"U","NORAD_CAT_ID":51463,"ELEMENT_SET_NO":999,"REV_AT_EPOCH":22654,"BSTAR":0.00019341287,"MEAN_MOTION_DOT":2.79e-5,"MEAN_MOTION_DDOT":0},{"OBJECT_NAME":"OBJECT B","OBJECT_ID":"2024-174B","EPOCH":"2026-03-09T23:26:11.570784","MEAN_MOTION":15.09493991,"ECCENTRICITY":0.00195829,"INCLINATION":97.4508,"RA_OF_ASC_NODE":75.153,"ARG_OF_PERICENTER":270.277,"MEAN_ANOMALY":89.6216,"EPHEMERIS_TYPE":0,"CLASSIFICATION_TYPE":"U","NORAD_CAT_ID":61239,"ELEMENT_SET_NO":999,"REV_AT_EPOCH":8042,"BSTAR":0.00031274192,"MEAN_MOTION_DOT":4.97e-5,"MEAN_MOTION_DDOT":0}]
